NORAD_CAT_ID,OBJECT_NAME,OBJECT_TYPE,EPOCH,MEAN_MOTION,ECCENTRICITY,INCLINATION,RA_OF_ASC_NODE,ARG_OF_PERICENTER,MEAN_ANOMALY,BSTAR,MEAN_MOTION_DOT,MEAN_MOTION_DDOT,TLE_LINE0,TLE_LINE1,TLE_LINE2,SEMIMAJOR_AXIS,PERIOD,APOGEE,PERIGEE,DECAYED
53719.0,STARLINK-4644,PAYLOAD,2023-08-28 05:18:03,15.08835354,0.0001107,53.2172,54.0124,96.2076,263.9042,1.4669e-05,-5.4e-07,0.0,0 STARLINK-4644,1 53719U 22107V   23240.22087944 -.00000054  00000-0  14669-4 0  9994,2 53719  53.2172  54.0124 0001107  96.2076 263.9042 15.08835354 54807,6917.895,95.438,540.525,538.994,0.0
53719.0,STARLINK-4644,PAYLOAD,2023-08-28 18:01:09,15.0883981,0.000127,53.2173,51.6354,85.6716,274.4422,0.00010588,1.398e-05,0.0,0 STARLINK-4644,1 53719U 22107V   23240.75080092  .00001398  00000-0  10588-3 0  9995,2 53719  53.2173  51.6354 0001270  85.6716 274.4422 15.08839810 55351,6917.881,95.438,540.625,538.867,0.0
53719.0,STARLINK-4644,PAYLOAD,2023-08-28 22:47:18,15.08844497,0.0001315,53.2171,50.7428,87.8867,272.2276,0.00016607,2.356e-05,0.0,0 STARLINK-4644,1 53719U 22107V   23240.94951863  .00002356  00000-0  16607-3 0  9992,2 53719  53.2171  50.7428 0001315  87.8867 272.2276 15.08844497 54913,6917.867,95.437,540.641,538.822,0.0
53719.0,STARLINK-4644,PAYLOAD,2023-08-29 17:51:43,15.09078632,0.0003293,53.2179,47.172,145.3854,214.7353,0.003225,0.00051757,0.0,0 STARLINK-4644,1 53719U 22107V   23241.74425640  .00051757  00000-0  32250-2 0  9990,2 53719  53.2179  47.1720 0003293 145.3854 214.7353 15.09078632 55031,6917.151,95.422,541.294,536.738,0.0
53719.0,STARLINK-4644,PAYLOAD,2023-08-29 19:27:05,15.09097709,0.0001478,53.2177,46.8745,106.3586,253.7569,0.0034005,0.00054636,0.0,0 STARLINK-4644,1 53719U 22107V   23241.81047504  .00054636  00000-0  34005-2 0  9996,2 53719  53.2177  46.8745 0001478 106.3586 253.7569 15.09097709 55515,6917.093,95.421,539.98,537.935,0.0
53719.0,STARLINK-4644,PAYLOAD,2023-08-29 22:37:45,15.09193336,0.000133,53.2177,46.2793,98.0445,262.0698,0.0045413,0.00073449,0.0,0 STARLINK-4644,1 53719U 22107V   23241.94288282  .00073449  00000-0  45413-2 0  9998,2 53719  53.2177  46.2793 0001330  98.0445 262.0698 15.09193336 55069,6916.801,95.415,539.586,537.746,0.0
53719.0,STARLINK-4644,PAYLOAD,2023-08-30 17:41:34,15.10035967,0.0001951,53.2179,42.7066,47.7987,312.3171,0.0034423,0.00056777,0.0,0 STARLINK-4644,1 53719U 22107V   23242.73720659  .00056777  00000-0  34423-2 0  9999,2 53719  53.2179  42.7066 0001951  47.7987 312.3171 15.10035967 55181,6914.227,95.362,537.441,534.743,0.0
53719.0,STARLINK-4644,PAYLOAD,2023-08-30 19:16:50,15.10105875,0.0001748,53.217,42.4045,47.616,312.498,0.0043019,0.00071311,0.0,0 STARLINK-4644,1 53719U 22107V   23242.80336205  .00071311  00000-0  43019-2 0  9999,2 53719  53.2170  42.4045 0001748  47.6160 312.4980 15.10105875 55660,6914.014,95.358,537.087,534.67,0.0
53719.0,STARLINK-4644,PAYLOAD,2023-08-31 06:00:00,15.10440485,0.0001299,53.2176,40.3997,90.0849,179.5544,0.0016325,0.00026961,0.0,0 STARLINK-4644,1 53719U 22107V   23243.25001157  .00026961  00000-0  16325-2 0  9995,2 53719  53.2176  40.3997 0001299  90.0849 179.5544 15.10440485 55269,6912.993,95.336,535.756,533.96,0.0
53719.0,STARLINK-4644,PAYLOAD,2023-08-31 14:00:01,15.10503894,0.0001317,53.2178,38.9003,89.5345,193.6511,-0.0024535,-0.00040936,0.0,0 STARLINK-4644,1 53719U 22107V   23243.58334491 -.00040936  00000-0 -24535-2 0  9993,2 53719  53.2178  38.9003 0001317  89.5345 193.6511 15.10503894 55318,6912.799,95.332,535.575,533.754,0.0
53719.0,STARLINK-4644,PAYLOAD,2023-08-31 22:00:01,15.10454265,0.0001272,53.2175,37.401,82.3275,214.5032,0.0021255,0.00035246,0.0,0 STARLINK-4644,1 53719U 22107V   23243.91668981  .00035246  00000-0  21255-2 0  9996,2 53719  53.2175  37.4010 0001272  82.3275 214.5032 15.10454265  5807,6912.951,95.336,535.695,533.936,0.0
53719.0,STARLINK-4644,PAYLOAD,2023-09-01 06:00:00,15.10450315,0.0001238,53.2177,35.8992,95.8677,214.4576,0.0028954,0.00048201,0.0,0 STARLINK-4644,1 53719U 22107V   23244.25001157  .00048201  00000-0  28954-2 0  9998,2 53719  53.2177  35.8992 0001238  95.8677 214.4576 15.10450315 55413,6912.963,95.336,535.683,533.972,0.0
53719.0,STARLINK-4644,PAYLOAD,2023-09-01 14:00:01,15.10507903,0.0001255,53.2179,34.4,94.9054,228.965,-0.002925,-0.00048699,0.0,0 STARLINK-4644,1 53719U 22107V   23244.58334491 -.00048699  00000-0 -29250-2 0  9997,2 53719  53.2179  34.4000 0001255  94.9054 228.9650 15.10507903  5805,6912.787,95.332,535.52,533.784,0.0
53719.0,STARLINK-4644,PAYLOAD,2023-09-01 22:00:00,15.10455429,0.0001168,53.2173,32.9007,75.6719,261.775,0.0012952,0.00021322,0.0,0 STARLINK-4644,1 53719U 22107V   23244.91667824  .00021322  00000-0  12952-2 0  9996,2 53719  53.2173  32.9007 0001168  75.6719 261.7750 15.10455429 55510,6912.947,95.335,535.62,534.005,0.0
53719.0,STARLINK-4644,PAYLOAD,2023-09-02 14:00:01,15.10507755,0.0001209,53.2175,29.9,82.5788,281.9626,-0.003552,-0.00058991,0.0,0 STARLINK-4644,1 53719U 22107V   23245.58334491 -.00058991  00000-0 -35520-2 0  9991,2 53719  53.2175  29.9000 0001209  82.5788 281.9626 15.10507755  5814,6912.787,95.332,535.488,533.817,0.0
53719.0,STARLINK-4644,PAYLOAD,2023-09-02 22:00:00,15.10449133,0.0001278,53.2171,28.4005,76.5078,301.6181,0.0013865,0.00022846,0.0,0 STARLINK-4644,1 53719U 22107V   23245.91667824  .00022846  00000-0  13865-2 0  9993,2 53719  53.2171  28.4005 0001278  76.5078 301.6181 15.10449133 55669,6912.966,95.336,535.715,533.948,0.0
53719.0,STARLINK-4644,PAYLOAD,2023-09-03 09:02:13,15.10482462,0.0001319,53.2197,26.3295,82.5846,277.5297,0.00016496,2.455e-05,0.0,0 STARLINK-4644,1 53719U 22107V   23246.37654425  .00002455  00000-0  16496-3 0  9995,2 53719  53.2197  26.3295 0001319  82.5846 277.5297 15.10482462 56203,6912.865,95.334,535.641,533.818,0.0
53719.0,STARLINK-4644,PAYLOAD,2023-09-04 08:51:27,15.10477381,0.0001329,53.219,21.8651,80.9848,279.1295,8.8039e-05,1.173e-05,0.0,0 STARLINK-4644,1 53719U 22107V   23247.36906975  .00001173  00000-0  88039-4 0  9994,2 53719  53.2190  21.8651 0001329  80.9848 279.1295 15.10477381 55880,6912.88,95.334,535.664,533.826,0.0
53719.0,STARLINK-4644,PAYLOAD,2023-09-05 08:40:41,15.10474211,0.0001162,53.2174,17.3967,81.0831,279.0294,8.3089e-05,1.091e-05,0.0,0 STARLINK-4644,1 53719U 22107V   23248.36159588  .00001091  00000-0  83089-4 0  9994,2 53719  53.2174  17.3967 0001162  81.0831 279.0294 15.10474211 56036,6912.89,95.334,535.558,533.951,0.0
53719.0,STARLINK-4644,PAYLOAD,2023-09-06 02:08:47,15.10481205,0.0001197,53.2183,14.1204,88.5397,271.5733,0.00015114,2.225e-05,0.0,0 STARLINK-4644,1 53719U 22107V   23249.08943986  .00002225  00000-0  15114-3 0  9990,2 53719  53.2183  14.1204 0001197  88.5397 271.5733 15.10481205 56140,6912.868,95.334,535.561,533.906,0.0
53719.0,STARLINK-4644,PAYLOAD,2023-09-06 08:29:55,15.10478708,0.0001219,53.2183,12.9296,88.6331,271.4802,0.0001295,1.864e-05,0.0,0 STARLINK-4644,1 53719U 22107V   23249.35411530  .00001864  00000-0  12950-3 0  9998,2 53719  53.2183  12.9296 0001219  88.6331 271.4802 15.10478708 56657,6912.876,95.334,535.584,533.898,0.0
53719.0,STARLINK-4644,PAYLOAD,2023-09-07 08:19:09,15.10480012,0.000129,53.2184,8.4628,87.9496,272.1644,8.885e-05,1.187e-05,0.0,0 STARLINK-4644,1 53719U 22107V   23250.34663832  .00001187  00000-0  88850-4 0  9994,2 53719  53.2184   8.4628 0001290  87.9496 272.1644 15.10480012 56338,6912.872,95.334,535.629,533.845,0.0
53719.0,STARLINK-4644,PAYLOAD,2023-09-07 17:50:50,15.10483291,0.0001223,53.2182,6.6753,99.8748,260.2383,8.4548e-05,1.115e-05,0.0,0 STARLINK-4644,1 53719U 22107V   23250.74364297  .00001115  00000-0  84548-4 0  9992,2 53719  53.2182   6.6753 0001223  99.8748 260.2383 15.10483291 56861,6912.862,95.334,535.573,533.882,0.0
53719.0,STARLINK-4644,PAYLOAD,2023-09-08 12:54:14,15.10476229,0.0001501,53.2185,3.0998,111.1938,248.9215,3.9567e-05,3.66e-06,0.0,0 STARLINK-4644,1 53719U 22107V   23251.53766651  .00000366  00000-0  39567-4 0  9998,2 53719  53.2185   3.0998 0001501 111.1938 248.9215 15.10476229 56987,6912.884,95.334,535.786,533.711,0.0
53719.0,STARLINK-4644,PAYLOAD,2023-09-08 14:29:31,15.10478411,0.0001361,53.2193,2.8019,109.3362,250.7778,7.8109e-05,1.008e-05,0.0,0 STARLINK-4644,1 53719U 22107V   23251.60383246  .00001008  00000-0  78109-4 0  9990,2 53719  53.2193   2.8019 0001361 109.3362 250.7778 15.10478411 56521,6912.877,95.334,535.683,533.801,0.0
53719.0,STARLINK-4644,PAYLOAD,2023-09-09 07:57:37,15.10472434,0.000114,53.2187,359.5299,90.5047,269.6077,-2.9015e-05,-7.75e-06,0.0,0 STARLINK-4644,1 53719U 22107V   23252.33168894 -.00000775  00000-0 -29015-4 0  9995,2 53719  53.2187 359.5299 0001140  90.5047 269.6077 15.10472434 56634,6912.895,95.334,535.548,533.972,0.0
53719.0,STARLINK-4644,PAYLOAD,2023-09-09 14:18:45,15.10475385,0.0001462,53.2195,358.3409,99.4445,260.6713,0.00011072,1.551e-05,0.0,0 STARLINK-4644,1 53719U 22107V   23252.59635894  .00001551  00000-0  11072-3 0  9996,2 53719  53.2195 358.3409 0001462  99.4445 260.6713 15.10475385 57143,6912.886,95.334,535.762,533.741,0.0
53719.0,STARLINK-4644,PAYLOAD,2023-09-09 23:50:26,15.10480985,0.0001718,53.2179,356.5519,84.0372,276.0817,4.229e-05,4.11e-06,0.0,0 STARLINK-4644,1 53719U 22107V   23252.99336589  .00000411  00000-0  42290-4 0  9990,2 53719  53.2179 356.5519 0001718  84.0372 276.0817 15.10480985 56732,6912.869,95.334,535.922,533.546,0.0
53719.0,STARLINK-4644,PAYLOAD,2023-09-10 12:32:42,15.10483745,0.00013,53.2186,354.1707,98.5198,261.5942,6.9125e-05,8.59e-06,0.0,0 STARLINK-4644,1 53719U 22107V   23253.52270915  .00000859  00000-0  69125-4 0  9992,2 53719  53.2186 354.1707 0001300  98.5198 261.5942 15.10483745 57282,6912.861,95.334,535.624,533.827,0.0
53719.0,STARLINK-4644,PAYLOAD,2023-09-11 10:46:40,15.10469759,0.0001533,53.2195,350.0014,92.3892,267.7276,6.2526e-05,7.48e-06,0.0,0 STARLINK-4644,1 53719U 22107V   23254.44907428  .00000748  00000-0  62526-4 0  9995,2 53719  53.2195 350.0014 0001533  92.3892 267.7276 15.10469759 56959,6912.903,95.335,535.828,533.709,0.0
